STARLINK-37586          
1 69521U 26133P   26170.58335648 -.01651168  87976-3 -23293-2 0  9997
2 69521  53.1584 310.4039 0000626  56.7318 226.2869 16.05152564  2243
STARLINK-37379          
1 69522U 26133Q   26170.58335648 -.01636285  86717-3 -22798-2 0  9992
2 69522  53.1585 310.3962 0000546  60.0580 226.5376 16.05353100  2299
STARLINK-37429          
1 69523U 26133R   26170.58335648 -.01628459  86152-3 -22416-2 0  9997
2 69523  53.1582 310.3887 0000574  59.4828 230.6363 16.05549107  2297
STARLINK-37352          
1 69524U 26133S   26170.58335648 -.01611385  84836-3 -21711-2 0  9992
2 69524  53.1583 310.3791 0000547  54.3753 240.2855 16.05893008  2299
STARLINK-37490          
1 69525U 26133T   26170.58335648 -.01587745  83223-3 -20511-2 0  9991
2 69525  53.1581 310.3605 0000761  56.1596 247.4171 16.06566272  2296
STARLINK-37438          
1 69526U 26133U   26170.58335648 -.01606867  84697-3 -21259-2 0  9995
2 69526  53.1583 310.3713 0000802  59.9846 238.7963 16.06186259  2299
STARLINK-37484          
1 69527U 26133V   26170.58335648 -.01565801  81352-3 -19911-2 0  9995
2 69527  53.1581 310.3504 0000522  55.8677 252.5452 16.06815535  2295
STARLINK-37523          
1 69528U 26133W   26170.58335648 -.01565711  81566-3 -19634-2 0  9995
2 69528  53.1582 310.3428 0000660  55.9384 256.1141 16.07037315  2299
STARLINK-37369          
1 69529U 26133X   26170.58335648 -.01538418  79165-3 -19025-2 0  9996
2 69529  53.1578 310.3350 0000659  58.0790 257.6878 16.07254509  2291
STARLINK-37670          
1 69530U 26133Y   26170.58335648 -.01517607  77633-3 -18231-2 0  9991
2 69530  53.1579 310.3246 0000741  72.4015 248.5878 16.07710123  2298
STARLINK-37897          
1 69531U 26133Z   26170.58335648 -.01515605  77739-3 -17855-2 0  9996
2 69531  53.1577 310.3131 0000716  77.1071 249.1237 16.08016042  2247
STARLINK-37933          
1 69532U 26133AA  26170.58335648 -.01479210  74758-3 -16910-2 0  9997
2 69532  53.1577 310.3019 0000826  74.6896 256.8390 16.08480376  2242
STARLINK-37890          
1 69533U 26133AB  26170.58335648 -.01463396  73526-3 -16454-2 0  9991
2 69533  53.1579 310.2935 0000837  72.1004 263.3246 16.08735526  2240
STARLINK-37407          
1 69534U 26133AC  26170.58335648 -.01454986  73069-3 -15994-2 0  9997
2 69534  53.1577 310.2810 0000797  76.8886 264.4080 16.09084361  2293
STARLINK-37888          
1 69535U 26133AD  26170.58335648 -.01418945  70078-3 -15243-2 0  9997
2 69535  53.1578 310.2712 0000527  72.1913 273.6725 16.09433560  2249
STARLINK-37889          
1 69536U 26133AE  26170.58335648 -.01663561  88892-3 -23896-2 0  9990
2 69536  53.1599 310.4141 0000718  56.6876 222.1304 16.04857937  2243
2026-134A               
1 69538U 26134A   26170.44272626  .00003617  00000+0  23107-3 0  9998
2 69538  97.7009 240.5532 0014117 262.5844  97.3781 15.09226512   650
2026-134B               
1 69539U 26134B   26170.64116515  .00003557  00000+0  22630-3 0  9998
2 69539  97.6982 240.7526 0014260 264.6051  95.3550 15.09384230   673
2026-134C               
1 69540U 26134C   26170.64107490  .00003473  00000+0  22091-3 0  9990
2 69540  97.6987 240.7529 0013674 266.0697  93.8968 15.09415292   672
2026-134D               
1 69541U 26134D   26170.64090259  .00003570  00000+0  22656-3 0  9990
2 69541  97.7028 240.7549 0014751 265.4792  94.4752 15.09472236   677
2026-134E               
1 69542U 26134E   26170.64083806  .00003505  00000+0  22240-3 0  9998
2 69542  97.7047 240.7557 0014477 266.3582  93.5991 15.09494119   679
2026-134F               
1 69543U 26134F   26170.64070456  .00003549  00000+0  22484-3 0  9994
2 69543  97.6999 240.7539 0013815 268.4427  91.5219 15.09540434   674
2026-134G               
1 69544U 26134G   26170.64045624  .00003509  00000+0  22185-3 0  9998
2 69544  97.7043 240.7560 0014285 269.1613  90.7979 15.09623473   676
2026-134H               
1 69545U 26134H   26170.64026326  .00003586  00000+0  22625-3 0  9991
2 69545  97.7029 240.7557 0014169 270.6320  89.3285 15.09689139   664
SHIJIAN-31 (SJ-31)      
1 69570U 26136A   26167.84805573  .00006163  24751-6  28088-3 0  9997
2 69570  63.4649 356.1810 7310406 171.7246 356.2040  2.28095748    54
GUOWANG OBJECT A        
1 69572U 26137A   26169.88165212 -.00000121  00000+0  20220-4 0  9999
2 69572  50.0024 248.6637 0012842 230.8660 129.1099 13.92190562   256
GUOWANG OBJECT B        
1 69573U 26137B   26170.02511022 -.00000120  00000+0  20845-4 0  9994
2 69573  50.0047 248.0870 0012143 231.3918 128.5894 13.92270419   280
