OBJECT_NAME,OBJECT_ID,EPOCH,MEAN_MOTION,ECCENTRICITY,INCLINATION,RA_OF_ASC_NODE,ARG_OF_PERICENTER,MEAN_ANOMALY,EPHEMERIS_TYPE,CLASSIFICATION_TYPE,NORAD_CAT_ID,ELEMENT_SET_NO,REV_AT_EPOCH,BSTAR,MEAN_MOTION_DOT,MEAN_MOTION_DDOT
STARLINK-37586,2026-133P,2026-06-19T14:00:01.999872,16.05152564,.00006261,53.1584,310.4039,56.7318,226.2869,0,U,69521,999,224,-.23292848E-2,-.1651168E-1,.87975524E-3
STARLINK-37379,2026-133Q,2026-06-19T14:00:01.999872,16.05353100,.00005464,53.1585,310.3962,60.0580,226.5376,0,U,69522,999,229,-.22797998E-2,-.1636285E-1,.86717283E-3
STARLINK-37429,2026-133R,2026-06-19T14:00:01.999872,16.05549107,.00005744,53.1582,310.3887,59.4828,230.6363,0,U,69523,999,229,-.22415528E-2,-.1628459E-1,.86152454E-3
STARLINK-37352,2026-133S,2026-06-19T14:00:01.999872,16.05893008,.00005471,53.1583,310.3791,54.3753,240.2855,0,U,69524,999,229,-.21711392E-2,-.1611385E-1,.84836193E-3
STARLINK-37490,2026-133T,2026-06-19T14:00:01.999872,16.06566272,.00007617,53.1581,310.3605,56.1596,247.4171,0,U,69525,999,229,-.20511088E-2,-.1587745E-1,.83223018E-3
STARLINK-37438,2026-133U,2026-06-19T14:00:01.999872,16.06186259,.00008028,53.1583,310.3713,59.9846,238.7963,0,U,69526,999,229,-.21258982E-2,-.1606867E-1,.8469723E-3
STARLINK-37484,2026-133V,2026-06-19T14:00:01.999872,16.06815535,.00005223,53.1581,310.3504,55.8677,252.5452,0,U,69527,999,229,-.19911035E-2,-.1565801E-1,.81352435E-3
STARLINK-37523,2026-133W,2026-06-19T14:00:01.999872,16.07037315,.00006603,53.1582,310.3428,55.9384,256.1141,0,U,69528,999,229,-.19634254E-2,-.1565711E-1,.81566094E-3
STARLINK-37369,2026-133X,2026-06-19T14:00:01.999872,16.07254509,.00006591,53.1578,310.3350,58.0790,257.6878,0,U,69529,999,229,-.19025125E-2,-.1538418E-1,.79165189E-3
STARLINK-37670,2026-133Y,2026-06-19T14:00:01.999872,16.07710123,.00007419,53.1579,310.3246,72.4015,248.5878,0,U,69530,999,229,-.18230519E-2,-.1517607E-1,.77632721E-3
STARLINK-37897,2026-133Z,2026-06-19T14:00:01.999872,16.08016042,.00007163,53.1577,310.3131,77.1071,249.1237,0,U,69531,999,224,-.17855066E-2,-.1515605E-1,.77738971E-3
STARLINK-37933,2026-133AA,2026-06-19T14:00:01.999872,16.08480376,.00008267,53.1577,310.3019,74.6896,256.8390,0,U,69532,999,224,-.16909933E-2,-.147921E-1,.74758323E-3
STARLINK-37890,2026-133AB,2026-06-19T14:00:01.999872,16.08735526,.00008374,53.1579,310.2935,72.1004,263.3246,0,U,69533,999,224,-.16454207E-2,-.1463396E-1,.73525513E-3
STARLINK-37407,2026-133AC,2026-06-19T14:00:01.999872,16.09084361,.00007976,53.1577,310.2810,76.8886,264.4080,0,U,69534,999,229,-.15993655E-2,-.1454986E-1,.73068669E-3
STARLINK-37888,2026-133AD,2026-06-19T14:00:01.999872,16.09433560,.00005272,53.1578,310.2712,72.1913,273.6725,0,U,69535,999,224,-.15242592E-2,-.1418945E-1,.70077524E-3
STARLINK-37889,2026-133AE,2026-06-19T14:00:01.999872,16.04857937,.00007187,53.1599,310.4141,56.6876,222.1304,0,U,69536,999,224,-.23896472E-2,-.1663561E-1,.88891633E-3
2026-134A,2026-134A,2026-06-19T10:37:31.548864,15.09226512,.00141174,97.7009,240.5532,262.5844,97.3781,0,U,69538,999,65,.2310684E-3,.3617E-4,0
2026-134B,2026-134B,2026-06-19T15:23:16.668960,15.09384230,.00142609,97.6982,240.7526,264.6051,95.3550,0,U,69539,999,67,.22629999E-3,.3557E-4,0
2026-134C,2026-134C,2026-06-19T15:23:08.871360,15.09415292,.00136743,97.6987,240.7529,266.0697,93.8968,0,U,69540,999,67,.2209102E-3,.3473E-4,0
2026-134D,2026-134D,2026-06-19T15:22:53.983776,15.09472236,.00147514,97.7028,240.7549,265.4792,94.4752,0,U,69541,999,67,.22655951E-3,.357E-4,0
2026-134E,2026-134E,2026-06-19T15:22:48.408384,15.09494119,.00144772,97.7047,240.7557,266.3582,93.5991,0,U,69542,999,67,.22239822E-3,.3505E-4,0
2026-134F,2026-134F,2026-06-19T15:22:36.873984,15.09540434,.00138155,97.6999,240.7539,268.4427,91.5219,0,U,69543,999,67,.2248447E-3,.3549E-4,0
2026-134G,2026-134G,2026-06-19T15:22:15.419136,15.09623473,.00142856,97.7043,240.7560,269.1613,90.7979,0,U,69544,999,67,.22184645E-3,.3509E-4,0
2026-134H,2026-134H,2026-06-19T15:21:58.745664,15.09689139,.00141691,97.7029,240.7557,270.6320,89.3285,0,U,69545,999,66,.22625352E-3,.3586E-4,0
SHIJIAN-31 (SJ-31),2026-136A,2026-06-16T20:21:12.015072,2.28095748,.7310406,63.4649,356.1810,171.7246,356.2040,0,U,69570,999,5,.28088E-3,.6163E-4,.24751E-6
GUOWANG OBJECT A,2026-137A,2026-06-18T21:09:34.743168,13.92190562,.00128429,50.0024,248.6637,230.8660,129.1099,0,U,69572,999,25,.20219723E-4,-.121E-5,0
GUOWANG OBJECT B,2026-137B,2026-06-19T00:36:09.523008,13.92270419,.00121431,50.0047,248.0870,231.3918,128.5894,0,U,69573,999,28,.20844643E-4,-.12E-5,0
